NORAD_CAT_ID,OBJECT_NAME,OBJECT_TYPE,EPOCH,MEAN_MOTION,ECCENTRICITY,INCLINATION,RA_OF_ASC_NODE,ARG_OF_PERICENTER,MEAN_ANOMALY,BSTAR,MEAN_MOTION_DOT,MEAN_MOTION_DDOT,TLE_LINE0,TLE_LINE1,TLE_LINE2,SEMIMAJOR_AXIS,PERIOD,APOGEE,PERIGEE,DECAYED
51886.0,STARLINK-3565,PAYLOAD,2024-05-15 04:14:40,15.08876443,0.0001353,53.2158,97.7432,89.4842,270.6305,0.00061003,9.444e-05,0.0,0 STARLINK-3565,1 51886U 22022AL  24136.17685576  .00009444  00000-0  61003-3 0  9991,2 51886  53.2158  97.7432 0001353  89.4842 270.6305 15.08876443123086,6917.769,95.435,540.57,538.698,0.0
51886.0,STARLINK-3565,PAYLOAD,2024-05-15 07:25:26,15.08879844,0.0001355,53.2157,97.1484,90.1291,269.9857,0.00065141,0.00010106,0.0,0 STARLINK-3565,1 51886U 22022AL  24136.30933243  .00010106  00000-0  65141-3 0  9997,2 51886  53.2157  97.1484 0001355  90.1291 269.9857 15.08879844123109,6917.759,95.435,540.561,538.686,0.0
51886.0,STARLINK-3565,PAYLOAD,2024-05-15 21:43:54,15.08869395,0.0001534,53.2167,94.4713,91.7395,268.3772,0.0003728,5.655e-05,0.0,0 STARLINK-3565,1 51886U 22022AL  24136.90548662  .00005655  00000-0  37280-3 0  9996,2 51886  53.2167  94.4713 0001534  91.7395 268.3772 15.08869395123194,6917.791,95.436,540.717,538.594,0.0
51886.0,STARLINK-3565,PAYLOAD,2024-05-16 04:05:26,15.08854538,0.000141,53.2163,93.2825,106.3358,253.7789,-6.0693e-05,-1.254e-05,0.0,0 STARLINK-3565,1 51886U 22022AL  24137.17044714 -.00001254  00000-0 -60693-4 0  9993,2 51886  53.2163  93.2825 0001410 106.3358 253.7789 15.08854538123230,6917.836,95.437,540.676,538.726,0.0
51886.0,STARLINK-3565,PAYLOAD,2024-05-16 13:37:44,15.0887,0.0001492,53.2167,91.4985,107.3988,252.7167,0.00036047,5.458e-05,0.0,0 STARLINK-3565,1 51886U 22022AL  24137.56787876  .00005458  00000-0  36047-3 0  9992,2 51886  53.2167  91.4985 0001492 107.3988 252.7167 15.08870000123298,6917.789,95.436,540.686,538.622,0.0
51886.0,STARLINK-3565,PAYLOAD,2024-05-16 21:34:40,15.08854301,0.0002628,53.2163,90.0106,83.6861,276.443,0.00028536,4.258e-05,0.0,0 STARLINK-3565,1 51886U 22022AL  24137.89908551  .00004258  00000-0  28536-3 0  9994,2 51886  53.2163  90.0106 0002628  83.6861 276.4430 15.08854301123340,6917.837,95.437,541.52,537.884,0.0
51886.0,STARLINK-3565,PAYLOAD,2024-05-17 03:56:13,15.0884696,0.0001511,53.2169,88.8241,105.6346,254.4813,0.00028924,4.319e-05,0.0,0 STARLINK-3565,1 51886U 22022AL  24138.16404427  .00004319  00000-0  28924-3 0  9997,2 51886  53.2169  88.8241 0001511 105.6346 254.4813 15.08846960123381,6917.859,95.437,540.769,538.679,0.0
51886.0,STARLINK-3565,PAYLOAD,2024-05-18 05:22:23,15.08842093,0.0001461,53.2172,84.0665,109.4866,250.6284,0.00016517,2.342e-05,0.0,0 STARLINK-3565,1 51886U 22022AL  24139.22388887  .00002342  00000-0  16517-3 0  9995,2 51886  53.2172  84.0665 0001461 109.4866 250.6284 15.08842093123547,6917.874,95.437,540.75,538.728,0.0
51886.0,STARLINK-3565,PAYLOAD,2024-05-18 13:19:19,15.08856951,0.000144,53.2158,82.5759,67.4965,292.6179,0.00052461,8.075e-05,0.0,0 STARLINK-3565,1 51886U 22022AL  24139.55508119  .00008075  00000-0  52461-3 0  9990,2 51886  53.2158  82.5759 0001440  67.4965 292.6179 15.08856951123590,6917.829,95.436,540.69,538.697,0.0
51886.0,STARLINK-3565,PAYLOAD,2024-05-18 19:40:52,15.0883016,0.0001997,53.2173,81.3921,83.7582,276.3638,-4.5503e-05,-1.012e-05,0.0,0 STARLINK-3565,1 51886U 22022AL  24139.82005392 -.00001012  00000-0 -45503-4 0  9991,2 51886  53.2173  81.3921 0001997  83.7582 276.3638 15.08830160123636,6917.91,95.438,541.157,538.394,0.0
51886.0,STARLINK-3565,PAYLOAD,2024-05-19 02:02:25,15.08816681,0.0001478,53.2165,80.2004,79.0158,281.1,-0.00036415,-6.075e-05,0.0,0 STARLINK-3565,1 51886U 22022AL  24140.08501886 -.00006075  00000-0 -36415-3 0  9995,2 51886  53.2165  80.2004 0001478  79.0158 281.1000 15.08816681123671,6917.952,95.439,540.839,538.794,0.0
51886.0,STARLINK-3565,PAYLOAD,2024-05-20 05:03:59,15.08855815,0.0001472,53.2164,75.1436,71.7324,288.3828,0.0012642,0.00019898,0.0,0 STARLINK-3565,1 51886U 22022AL  24141.21110245  .00019898  00000-0  12642-2 0  9996,2 51886  53.2164  75.1436 0001472  71.7324 288.3828 15.08855815123848,6917.832,95.437,540.715,538.679,0.0
51886.0,STARLINK-3565,PAYLOAD,2024-05-21 04:54:46,15.08842707,0.000128,53.2174,70.6792,118.4029,241.7093,0.00017091,2.433e-05,0.0,0 STARLINK-3565,1 51886U 22022AL  24142.20469921  .00002433  00000-0  17091-3 0  9995,2 51886  53.2174  70.6792 0001280 118.4029 241.7093 15.08842707123991,6917.872,95.437,540.623,538.852,0.0
51886.0,STARLINK-3565,PAYLOAD,2024-05-21 22:24:00,15.08845141,0.0001326,53.2176,67.4092,95.386,264.7283,0.00012574,1.714e-05,0.0,0 STARLINK-3565,1 51886U 22022AL  24142.93333908  .00001714  00000-0  12574-3 0  9992,2 51886  53.2176  67.4092 0001326  95.3860 264.7283 15.08845141124102,6917.865,95.437,540.647,538.812,0.0
51886.0,STARLINK-3565,PAYLOAD,2024-05-22 01:34:46,15.08848815,0.0001394,53.218,66.8151,87.261,272.8542,9.7723e-05,1.268e-05,0.0,0 STARLINK-3565,1 51886U 22022AL  24143.06581728  .00001268  00000-0  97723-4 0  9996,2 51886  53.2180  66.8151 0001394  87.2610 272.8542 15.08848815124125,6917.853,95.437,540.683,538.754,0.0
51886.0,STARLINK-3565,PAYLOAD,2024-05-23 04:36:20,15.08835146,0.0001364,53.2186,61.7626,85.4597,274.6551,3.9449e-05,3.4e-06,0.0,0 STARLINK-3565,1 51886U 22022AL  24144.19190539  .00000340  00000-0  39449-4 0  9998,2 51886  53.2186  61.7626 0001364  85.4597 274.6551 15.08835146124294,6917.895,95.438,540.704,538.817,0.0
51886.0,STARLINK-3565,PAYLOAD,2024-05-24 04:27:06,15.08846063,0.0001496,53.2182,57.3001,103.3411,256.7748,7.9636e-05,9.8e-06,0.0,0 STARLINK-3565,1 51886U 22022AL  24145.18549704  .00000980  00000-0  79636-4 0  9992,2 51886  53.2182  57.3001 0001496 103.3411 256.7748 15.08846063124445,6917.862,95.437,540.762,538.692,0.0
51886.0,STARLINK-3565,PAYLOAD,2024-05-24 21:56:22,15.08826506,0.0002054,53.2174,54.0279,128.5585,231.5591,3.4173e-05,2.56e-06,0.0,0 STARLINK-3565,1 51886U 22022AL  24145.91415304  .00000256  00000-0  34173-4 0  9994,2 51886  53.2174  54.0279 0002054 128.5585 231.5591 15.08826506124558,6917.922,95.438,541.208,538.366,0.0
51886.0,STARLINK-3565,PAYLOAD,2024-05-25 02:42:35,15.08790642,0.0001524,53.2178,53.1399,94.0498,266.0668,-0.00026156,-4.443e-05,0.0,0 STARLINK-3565,1 51886U 22022AL  24146.11290893 -.00004443  00000-0 -26156-3 0  9996,2 51886  53.2178  53.1399 0001524  94.0498 266.0668 15.08790642124588,6918.031,95.441,540.951,538.842,0.0
51886.0,STARLINK-3565,PAYLOAD,2024-05-25 10:39:29,15.08817489,0.0001121,53.2178,51.6527,105.7544,254.3572,-6.4818e-05,-1.319e-05,0.0,0 STARLINK-3565,1 51886U 22022AL  24146.44409018 -.00001319  00000-0 -64818-4 0  9990,2 51886  53.2178  51.6527 0001121 105.7544 254.3572 15.08817489124638,6917.949,95.439,540.59,539.039,0.0
51886.0,STARLINK-3565,PAYLOAD,2024-05-26 00:57:55,15.08852048,0.0001361,53.2176,48.9778,107.6362,252.4779,0.00012488,1.701e-05,0.0,0 STARLINK-3565,1 51886U 22022AL  24147.04022709  .00001701  00000-0  12488-3 0  9993,2 51886  53.2176  48.9778 0001361 107.6362 252.4779 15.08852048124726,6917.844,95.437,540.65,538.767,0.0
51886.0,STARLINK-3565,PAYLOAD,2024-05-26 21:37:56,15.08842619,0.0001235,53.2174,45.112,96.8979,263.2154,0.00026816,3.983e-05,0.0,0 STARLINK-3565,1 51886U 22022AL  24147.90134667  .00003983  00000-0  26816-3 0  9999,2 51886  53.2174  45.1120 0001235  96.8979 263.2154 15.08842619124851,6917.872,95.437,540.592,538.883,0.0
51886.0,STARLINK-3565,PAYLOAD,2024-05-26 23:13:19,15.08845876,0.0001329,53.2174,44.8149,112.4361,247.6772,0.00022563,3.305e-05,0.0,0 STARLINK-3565,1 51886U 22022AL  24147.96758579  .00003305  00000-0  22563-3 0  9992,2 51886  53.2174  44.8149 0001329 112.4361 247.6772 15.08845876124863,6917.862,95.437,540.647,538.808,0.0
51886.0,STARLINK-3565,PAYLOAD,2024-05-27 10:20:56,15.0888838,0.00054,53.2179,42.7294,267.3602,92.6772,0.00050673,7.797e-05,0.0,0 STARLINK-3565,1 51886U 22022AL  24148.43120545  .00007797  00000-0  50673-3 0  9993,2 51886  53.2179  42.7294 0005400 267.3602  92.6772 15.08888380124931,6917.733,95.434,543.333,535.862,0.0
51886.0,STARLINK-3565,PAYLOAD,2024-05-27 21:28:43,15.0885026,0.0001562,53.2194,40.642,70.4001,289.7159,-5.3975e-05,-1.147e-05,0.0,0 STARLINK-3565,1 51886U 22022AL  24148.89495145 -.00001147  00000-0 -53975-4 0  9998,2 51886  53.2194  40.6420 0001562  70.4001 289.7159 15.08850260125000,6917.849,95.437,540.795,538.633,0.0
51886.0,STARLINK-3565,PAYLOAD,2024-05-27 23:04:06,15.08850149,0.0001566,53.2194,40.3446,70.3785,289.7376,-5.5816e-05,-1.176e-05,0.0,0 STARLINK-3565,1 51886U 22022AL  24148.96119096 -.00001176  00000-0 -55816-4 0  9992,2 51886  53.2194  40.3446 0001566  70.3785 289.7376 15.08850149125015,6917.849,95.437,540.798,538.631,0.0
51886.0,STARLINK-3565,PAYLOAD,2024-05-28 02:14:53,15.08849069,0.0001455,53.2193,39.7528,75.6942,284.4211,-6.4785e-05,-1.319e-05,0.0,0 STARLINK-3565,1 51886U 22022AL  24149.09367067 -.00001319  00000-0 -64785-4 0  9994,2 51886  53.2193  39.7528 0001455  75.6942 284.4211 15.08849069125038,6917.853,95.437,540.724,538.711,0.0
51886.0,STARLINK-3565,PAYLOAD,2024-05-28 21:19:30,15.08844878,0.0001524,53.2195,36.184,74.9952,285.1209,-4.0629e-05,-9.35e-06,0.0,0 STARLINK-3565,1 51886U 22022AL  24149.88854779 -.00000935  00000-0 -40629-4 0  9996,2 51886  53.2195  36.1840 0001524  74.9952 285.1209 15.08844878125159,6917.865,95.437,540.785,538.676,0.0
51886.0,STARLINK-3565,PAYLOAD,2024-05-28 22:54:53,15.08844879,0.0001519,53.2195,35.8867,75.1724,284.9437,-4.0705e-05,-9.36e-06,0.0,0 STARLINK-3565,1 51886U 22022AL  24149.95478746 -.00000936  00000-0 -40705-4 0  9996,2 51886  53.2195  35.8867 0001519  75.1724 284.9437 15.08844879125160,6917.865,95.437,540.781,538.68,0.0
51886.0,STARLINK-3565,PAYLOAD,2024-05-29 22:45:40,15.08839746,0.0001307,53.2187,31.4278,91.5882,268.526,2.9382e-05,1.8e-06,0.0,0 STARLINK-3565,1 51886U 22022AL  24150.94838588  .00000180  00000-0  29382-4 0  9998,2 51886  53.2187  31.4278 0001307  91.5882 268.5260 15.08839746125317,6917.881,95.438,540.65,538.842,0.0
